{"type": "FeatureCollection", "features": [ {"type": "Feature", "properties": {"norad_id": 29940, "name": "FENGYUN 1C DEB", "group": "fengyun-1c-debris", "lat": -16.051086063276422, "lon": -5.742897970335564, "alt_km": 868.2109537854803, "timestamp": "2025-12-07T22:37:43.352186+00:00", "meta": {"OBJECT_NAME": "FENGYUN 1C DEB", "OBJECT_ID": "1999-025JN", "EPOCH": "2025-12-07T01:00:28.240128", "MEAN_MOTION": 14.18800095, "ECCENTRICITY": 0.00746703, "INCLINATION": 98.6212, "RA_OF_ASC_NODE": 350.8795, "ARG_OF_PERICENTER": 116.0533, "MEAN_ANOMALY": 309.7226, "EPHEMERIS_TYPE": 0, "CLASSIFICATION_TYPE": "U", "NORAD_CAT_ID": 29940, "ELEMENT_SET_NO": 999, "REV_AT_EPOCH": 97407, "BSTAR": 0.00096897135, "MEAN_MOTION_DOT": 2.029e-05, "MEAN_MOTION_DDOT": 0}, "tle": {"line1": "1 29940U 99025JN  25341.04199352  .00002029  00000+0  96897-3 0  9991", "line2": "2 29940  98.6212 350.8795 0074670 116.0533 309.7226 14.18800095974076"}}, "geometry": {"type": "Point", "coordinates": [-5.742897970335564, -16.051086063276422]}}, {"type": "Feature", "properties": {"norad_id": 29942, "name": "FENGYUN 1C DEB", "group": "fengyun-1c-debris", "lat": 6.16782082667279, "lon": 46.87423798840499, "alt_km": 783.8586335393948, "timestamp": "2025-12-07T22:37:43.352196+00:00", "meta": {"OBJECT_NAME": "FENGYUN 1C DEB", "OBJECT_ID": "1999-025JQ", "EPOCH": "2025-12-07T04:07:57.516672", "MEAN_MOTION": 14.30382298, "ECCENTRICITY": 0.00487364, "INCLINATION": 98.6375, "RA_OF_ASC_NODE": 47.0504, "ARG_OF_PERICENTER": 292.7131, "MEAN_ANOMALY": 66.8904, "EPHEMERIS_TYPE": 0, "CLASSIFICATION_TYPE": "U", "NORAD_CAT_ID": 29942, "ELEMENT_SET_NO": 999, "REV_AT_EPOCH": 97789, "BSTAR": 0.001197693, "MEAN_MOTION_DOT": 3.11e-05, "MEAN_MOTION_DDOT": 0}, "tle": {"line1": "1 29942U 99025JQ  25341.17219348  .00003110  00000+0  11977-2 0  9992", "line2": "2 29942  98.6375  47.0504 0048736 292.7131  66.8904 14.30382298977892"}}, "geometry": {"type": "Point", "coordinates": [46.87423798840499, 6.16782082667279]}}, {"type": "Feature", "properties": {"norad_id": 29943, "name": "FENGYUN 1C DEB", "group": "fengyun-1c-debris", "lat": -46.43850040390758, "lon": -0.8586573029012144, "alt_km": 859.3673739597862, "timestamp": "2025-12-07T22:37:43.352206+00:00", "meta": {"OBJECT_NAME": "FENGYUN 1C DEB", "OBJECT_ID": "1999-025JR", "EPOCH": "2025-12-07T06:06:09.071424", "MEAN_MOTION": 14.09669582, "ECCENTRICITY": 0.00346884, "INCLINATION": 98.7269, "RA_OF_ASC_NODE": 349.1792, "ARG_OF_PERICENTER": 242.9382, "MEAN_ANOMALY": 177.0987, "EPHEMERIS_TYPE": 0, "CLASSIFICATION_TYPE": "U", "NORAD_CAT_ID": 29943, "ELEMENT_SET_NO": 999, "REV_AT_EPOCH": 97229, "BSTAR": 0.00014136551, "MEAN_MOTION_DOT": 2.06e-06, "MEAN_MOTION_DDOT": 0}, "tle": {"line1": "1 29943U 99025JR  25341.25427166  .00000206  00000+0  14137-3 0  9996", "line2": "2 29943  98.7269 349.1792 0034688 242.9382 177.0987 14.09669582972292"}}, "geometry": {"type": "Point", "coordinates": [-0.8586573029012144, -46.43850040390758]}}, {"type": "Feature", "properties": {"norad_id": 29944, "name": "FENGYUN 1C DEB", "group": "fengyun-1c-debris", "lat": -38.966492334959476, "lon": 88.01262344833414, "alt_km": 509.3327296479165, "timestamp": "2025-12-07T22:37:43.352216+00:00", "meta": {"OBJECT_NAME": "FENGYUN 1C DEB", "OBJECT_ID": "1999-025JS", "EPOCH": "2025-12-06T18:11:08.661696", "MEAN_MOTION": 14.87354805, "ECCENTRICITY": 0.01667091, "INCLINATION": 99.0025, "RA_OF_ASC_NODE": 274.0364, "ARG_OF_PERICENTER": 251.2102, "MEAN_ANOMALY": 107.0962, "EPHEMERIS_TYPE": 0, "CLASSIFICATION_TYPE": "U", "NORAD_CAT_ID": 29944, "ELEMENT_SET_NO": 999, "REV_AT_EPOCH": 365, "BSTAR": 0.001377643, "MEAN_MOTION_DOT": 0.00016031, "MEAN_MOTION_DDOT": 0}, "tle": {"line1": "1 29944U 99025JS  25340.75773914  .00016031  00000+0  13776-2 0  9996", "line2": "2 29944  99.0025 274.0364 0166709 251.2102 107.0962 14.87354805  3657"}}, "geometry": {"type": "Point", "coordinates": [88.01262344833414, -38.966492334959476]}}, {"type": "Feature", "properties": {"norad_id": 29945, "name": "FENGYUN 1C DEB", "group": "fengyun-1c-debris", "lat": -49.378920052596264, "lon": 175.3333685022416, "alt_km": 900.1118371656066, "timestamp": "2025-12-07T22:37:43.352227+00:00", "meta": {"OBJECT_NAME": "FENGYUN 1C DEB", "OBJECT_ID": "1999-025JT", "EPOCH": "2025-12-07T07:55:09.477984", "MEAN_MOTION": 14.05570449, "ECCENTRICITY": 0.0031214, "INCLINATION": 98.7925, "RA_OF_ASC_NODE": 5.1343, "ARG_OF_PERICENTER": 17.6715, "MEAN_ANOMALY": 353.0827, "EPHEMERIS_TYPE": 0, "CLASSIFICATION_TYPE": "U", "NORAD_CAT_ID": 29945, "ELEMENT_SET_NO": 999, "REV_AT_EPOCH": 96902, "BSTAR": 9.9740911e-05, "MEAN_MOTION_DOT": 1.2e-06, "MEAN_MOTION_DDOT": 0}, "tle": {"line1": "1 29945U 99025JT  25341.32997081  .00000120  00000+0  99741-4 0  9994", "line2": "2 29945  98.7925   5.1343 0031214  17.6715 353.0827 14.05570449969028"}}, "geometry": {"type": "Point", "coordinates": [175.3333685022416, -49.378920052596264]}}, {"type": "Feature", "properties": {"norad_id": 29946, "name": "FENGYUN 1C DEB", "group": "fengyun-1c-debris", "lat": -24.982782812021323, "lon": 150.1828463962751, "alt_km": 922.4662832660333, "timestamp": "2025-12-07T22:37:43.352294+00:00", "meta": {"OBJECT_NAME": "FENGYUN 1C DEB", "OBJECT_ID": "1999-025JU", "EPOCH": "2025-12-07T06:21:55.054656", "MEAN_MOTION": 14.08246584, "ECCENTRICITY": 0.00809243, "INCLINATION": 98.7796, "RA_OF_ASC_NODE": 333.6528, "ARG_OF_PERICENTER": 358.9299, "MEAN_ANOMALY": 13.1746, "EPHEMERIS_TYPE": 0, "CLASSIFICATION_TYPE": "U", "NORAD_CAT_ID": 29946, "ELEMENT_SET_NO": 999, "REV_AT_EPOCH": 96970, "BSTAR": 0.000542952, "MEAN_MOTION_DOT": 9.12e-06, "MEAN_MOTION_DDOT": 0}, "tle": {"line1": "1 29946U 99025JU  25341.26522054  .00000912  00000+0  54295-3 0  9995", "line2": "2 29946  98.7796 333.6528 0080924 358.9299  13.1746 14.08246584969701"}}, "geometry": {"type": "Point", "coordinates": [150.1828463962751, -24.982782812021323]}}, {"type": "Feature", "properties": {"norad_id": 29947, "name": "FENGYUN 1C DEB", "group": "fengyun-1c-debris", "lat": -79.72342063751307, "lon": 71.72984748229527, "alt_km": 913.6687131931931, "timestamp": "2025-12-07T22:37:43.352307+00:00", "meta": {"OBJECT_NAME": "FENGYUN 1C DEB", "OBJECT_ID": "1999-025JV", "EPOCH": "2025-12-07T00:55:39.614016", "MEAN_MOTION": 14.03060062, "ECCENTRICITY": 0.00408244, "INCLINATION": 98.8369, "RA_OF_ASC_NODE": 11.7578, "ARG_OF_PERICENTER": 136.3594, "MEAN_ANOMALY": 253.9596, "EPHEMERIS_TYPE": 0, "CLASSIFICATION_TYPE": "U", "NORAD_CAT_ID": 29947, "ELEMENT_SET_NO": 999, "REV_AT_EPOCH": 96670, "BSTAR": 0.00041798533, "MEAN_MOTION_DOT": 6.12e-06, "MEAN_MOTION_DDOT": 0}, "tle": {"line1": "1 29947U 99025JV  25341.03865294  .00000612  00000+0  41799-3 0  9999", "line2": "2 29947  98.8369  11.7578 0040824 136.3594 253.9596 14.03060062966703"}}, "geometry": {"type": "Point", "coordinates": [71.72984748229527, -79.72342063751307]}}, {"type": "Feature", "properties": {"norad_id": 29948, "name": "FENGYUN 1C DEB", "group": "fengyun-1c-debris", "lat": 80.7208158502884, "lon": -103.69543659186041, "alt_km": 921.9433188685398, "timestamp": "2025-12-07T22:37:43.352318+00:00", "meta": {"OBJECT_NAME": "FENGYUN 1C DEB", "OBJECT_ID": "1999-025JW", "EPOCH": "2025-12-07T05:14:51.559584", "MEAN_MOTION": 14.06188193, "ECCENTRICITY": 0.00835968, "INCLINATION": 98.8238, "RA_OF_ASC_NODE": 327.5359, "ARG_OF_PERICENTER": 249.2716, "MEAN_ANOMALY": 134.073, "EPHEMERIS_TYPE": 0, "CLASSIFICATION_TYPE": "U", "NORAD_CAT_ID": 29948, "ELEMENT_SET_NO": 999, "REV_AT_EPOCH": 96899, "BSTAR": 0.00012421172, "MEAN_MOTION_DOT": 1.67e-06, "MEAN_MOTION_DDOT": 0}, "tle": {"line1": "1 29948U 99025JW  25341.21865231  .00000167  00000+0  12421-3 0  9996", "line2": "2 29948  98.8238 327.5359 0083596 249.2716 134.0730 14.06188193968998"}}, "geometry": {"type": "Point", "coordinates": [-103.69543659186041, 80.7208158502884]}}, {"type": "Feature", "properties": {"norad_id": 29949, "name": "FENGYUN 1C DEB", "group": "fengyun-1c-debris", "lat": 29.432244743554108, "lon": -7.214953462615563, "alt_km": 862.9846073502649, "timestamp": "2025-12-07T22:37:43.352329+00:00", "meta": {"OBJECT_NAME": "FENGYUN 1C DEB", "OBJECT_ID": "1999-025JX", "EPOCH": "2025-12-07T07:11:29.810112", "MEAN_MOTION": 14.06825012, "ECCENTRICITY": 0.00234188, "INCLINATION": 98.7626, "RA_OF_ASC_NODE": 357.1543, "ARG_OF_PERICENTER": 321.4222, "MEAN_ANOMALY": 52.4533, "EPHEMERIS_TYPE": 0, "CLASSIFICATION_TYPE": "U", "NORAD_CAT_ID": 29949, "ELEMENT_SET_NO": 999, "REV_AT_EPOCH": 97031, "BSTAR": -1.1804799e-05, "MEAN_MOTION_DOT": -6.2e-07, "MEAN_MOTION_DDOT": 0}, "tle": {"line1": "1 29949U 99025JX  25341.29965058 -.00000062  00000+0 -11805-4 0  9995", "line2": "2 29949  98.7626 357.1543 0023418 321.4222  52.4533 14.06825012970316"}}, "geometry": {"type": "Point", "coordinates": [-7.214953462615563, 29.432244743554108]}}, {"type": "Feature", "properties": {"norad_id": 29950, "name": "FENGYUN 1C DEB", "group": "fengyun-1c-debris", "lat": 15.314582747406439, "lon": -164.43088609361916, "alt_km": 859.5854657063273, "timestamp": "2025-12-07T22:37:43.352340+00:00", "meta": {"OBJECT_NAME": "FENGYUN 1C DEB", "OBJECT_ID": "1999-025JY", "EPOCH": "2025-12-07T01:32:51.326016", "MEAN_MOTION": 14.10330336, "ECCENTRICITY": 0.00322005, "INCLINATION": 98.7416, "RA_OF_ASC_NODE": 12.3005, "ARG_OF_PERICENTER": 258.6191, "MEAN_ANOMALY": 128.9265, "EPHEMERIS_TYPE": 0, "CLASSIFICATION_TYPE": "U", "NORAD_CAT_ID": 29950, "ELEMENT_SET_NO": 999, "REV_AT_EPOCH": 97211, "BSTAR": 0.00017177382, "MEAN_MOTION_DOT": 2.63e-06, "MEAN_MOTION_DDOT": 0}, "tle": {"line1": "1 29950U 99025JY  25341.06448294  .00000263  00000+0  17177-3 0  9998", "line2": "2 29950  98.7416  12.3005 0032200 258.6191 128.9265 14.10330336972119"}}, "geometry": {"type": "Point", "coordinates": [-164.43088609361916, 15.314582747406439]}}]}